no,display,category,name,address,phone1,phone2,memo1,memo2,lat,lng,area
,,nursery,‰L”•ÛˆçŠ,ìFs•ó—§’¬t“ú–ìbš‚W”Ô’n‚P,0768]84-1408,,8:00`16:30iŒ`‹à—j“újA8:00`12:30i“y—j“új,,37.405105,137.240742,
,,nursery,ãŒË•ÛˆçŠ,ìFsãŒË’¬›Ğ‚¢š‚W‚V”Ô’n,0768]82-1527,,8:00`16:30iŒ`‹à—j“újA8:00`12:30i“y—j“új,,37.428078,137.247792,
,,nursery,”Ñ“c•ÛˆçŠ,ìFsáR’¬o“c‚S‚P•”‚V”Ô’n,0768]82-0479,,8:00`16:30iŒ`‹à—j“újA8:00`12:30i“y—j“új,,37.440688,137.262833,
,,nursery,áR•ÛˆçŠ,ìFsáR’¬‰Î‹{‚W•”‚P‚S”Ô’n‚P,0768]82-0142,,8:00`16:30iŒ`‹à—j“újA8:00`12:30i“y—j“új,,37.45763,137.237973,
,,nursery,³‰@•ÛˆçŠ,ìFs³‰@’¬³‰@‚ğ•”‚S”Ô’n,0768]82-1974,,8:00`16:30iŒ`‹à—j“újA8:00`12:30i“y—j“új,,37.444844,137.286848,
,,nursery,‘û“‡•ÛˆçŠ,ìFs‘û“‡’¬”«ƒPè•”‚P”Ô‚P,0768]82-1952,,8:00`16:30iŒ`‹à—j“újA8:00`12:30i“y—j“új,,37.442525,137.319403,
,,nursery,¬”‘•ÛˆçŠ,ìFsOè’¬¬”‘‚P‚V•”‚R‚R”Ô’n‚P,0768]88-2147,,8:00`16:30iŒ`‹à—j“újA8:00`12:30i“y—j“új,,37.451089,137.358512,
,,nursery,ˆ¾’Ã•ÛˆçŠ,ìFsOè’¬ˆ¾’Ãƒ•”‚R‚T”Ô’n‚P,0768]88-2001,,8:00`16:30iŒ`‹à—j“újA8:00`12:30i“y—j“új,,37.485642,137.338668,
,,nursery,‘å’J•ÛˆçŠ,ìFs‘å’J’¬‚Tš‚Q‚W”Ô’n‚P,0768]87-2011,,8:00`16:30iŒ`‹à—j“újA8:00`12:30i“y—j“új,,37.499246,137.173452,
,,nursery,ìFs™“¶ŠÙ,ìFs”Ñ“c’¬‚X•”‚P‚T‚T”Ô’n,0768]82-5479,,8:30`17:00,,37.440477,137.263958,
,,™“¶ƒNƒ‰ƒu,•ó—§™“¶ƒNƒ‰ƒu,ìFs•ó—§’¬‰L”‰N•”‚W‚R”Ô’n,0768]84]2690,,•ú‰ÛŒã`18:00i8Œ‚ğœ‚­Œ`‹à—j“újA8:00`12:30i“y—j“úA8Œ‚ÌŒ`‹à—j“új,,37.403237,137.237993,
,,™“¶ƒNƒ‰ƒu,ãŒË™“¶ƒNƒ‰ƒu,ìFsãŒË’¬›Ğ‚Tš‚V‚S”Ô’n‚Ì‚Q,0768]82]0502,,•ú‰ÛŒã`18:00i8Œ‚ğœ‚­Œ`‹à—j“újA8:00`12:30i“y—j“úA8Œ‚ÌŒ`‹à—j“új,,37.427237,137.249932,
,,™“¶ƒNƒ‰ƒu,’¼™“¶ƒNƒ‰ƒu,ìFs–ìX]’¬“ñ•”‚R‚W”Ô’n‚Ì‚Q,0768]82]3915,,•ú‰ÛŒã`18:00i8Œ‚ğœ‚­Œ`‹à—j“újA8:00`12:30i“y—j“úA8Œ‚ÌŒ`‹à—j“új,,37.443949,137.281698,
,,™“¶ƒNƒ‰ƒu,”Ñ“c™“¶ƒNƒ‰ƒu,ìFs”Ñ“c’¬‚P‚X•”‚U‚P”Ô’n,0768]82]2234,,•ú‰ÛŒã`18:00i8Œ‚ğœ‚­Œ`‹à—j“újA8:00`12:30i“y—j“úA8Œ‚ÌŒ`‹à—j“új,,37.439955,137.259781,
,,ŠwZ,•ó—§¬ŠwZ,ìFs•ó—§’¬‰L”‰N•”‚W‚R”Ô’n,0768-84-1119,0768-84-1119,,,37.403237,137.237993,
,,ŠwZ,ãŒË¬ŠwZ,ìFsãŒË’¬›Ğ‚Tš‚V‚S”Ô’n‚Ì‚Q,0768-82]0168,0768-82]0168,,,37.427237,137.249932,
,,ŠwZ,”Ñ“c¬ŠwZ,ìFs”Ñ“c’¬‚P‚X•”‚U‚P”Ô’n,0768-82]0044,0768-82]0044,,,37.439955,137.259781,
,,ŠwZ,’¼¬ŠwZ,ìFs–ìX]’¬ƒj•”‚R‚W”Ô’n‚Ì‚Q,0768-82]0313,0768-82]0313,,,37.443949,137.281698,
,,ŠwZ,áR¬ŠwZ,ìFsáR’¬ŒÃ‘ ‚P‚P•”‚P‚O‚O”Ô’n‚Ì‚P,0768-82]0240,0768-82]0240,,,37.456478,137.242632,
,,ŠwZ,³‰@¬ŠwZ,ìFs³‰@’¬ìK‚P•”‚R‚X”Ô’n,0768-82]0404,0768-82]0404,,,37.445435,137.296505,
,,ŠwZ,‘û“‡¬ŠwZ,ìFs‘û“‡’¬ƒ•”‚U‚X”Ô’n,0768-82]0524,0768-82]0524,,,37.442814,137.313529,
,,ŠwZ,‚İ‚³‚«¬ŠwZ,ìFsOè’¬ˆ¾’Ãƒ•”‚P‚O”Ô’n‚Ì‚P,0768-88]2019,0768-88]2019,,,37.486834,137.339245,
,,ŠwZ,¼•”¬ŠwZ,ìFs‘å’J’¬‚Q•”‚S‚V”Ôb’n,0768-87]2016,0768-87]2016,,,37.501186,137.171269,
,,ŠwZ,•ó—§’†ŠwZ,ìFs•ó—§’¬‰L”‰N•”‚W‚R”Ô’n,0768-84-1106,0768-84-1106,,,37.403237,137.237993,
,,ŠwZ,—Î‹u’†ŠwZ,ìFs–ìX]’¬‚U‚Ì•”‚P”Ô’n,0768-82]0250,0768-82]3199,,,37.44656,137.272807,
,,ŠwZ,Oè’†ŠwZ,ìFsOè’¬‰F¡ƒˆ•”‚P‚P‚S”Ô’n,0768-88]2423,0768-88]2423,,,37.473969,137.342425,
,,ŠwZ,‘å’J’†ŠwZ,ìFs‘å’J’¬‚Pš‚V‚W”Ô’n,0768-87]2019,0768-87]2019,,,37.499946,137.176374,
,,nursery,s—§‰ÍŒ´“c•ÛˆçŠ,ÎìŒ§—Ö“‡s“Œ’†”ö’¬16,i0768j22-1206,,(Œ`‹à)7:30`18:30 (“y)7:30`13:00,‚Q‚©ŒŒã‚©‚ç,37.3682095,136.9073185,
,,nursery,s—§‚­‚µ‚Ğ•ÛˆçŠ,ÎìŒ§—Ö“‡s–å‘O’¬“ú–ì”öƒj‚Ì75”Ô’n,i0768j42-3085,,(Œ`‹à)7:30`18:30 (“y)7:30`13:00,‚Q‚©ŒŒã‚©‚ç,37.2882752,136.7724705,
,,nursery,s—§”‘ƒ•ÛˆçŠ,ÎìŒ§—Ö“‡s‘å–ì’¬ŒÔ‘ò35,i0768j22-3471,,(Œ`‹à)7:30`18:30 (“y)7:30`13:00,‚Q‚©ŒŒã‚©‚ç,37.3975766,136.9335452,
,,nursery,s—§¼•—‘ä•ÛˆçŠ,ÎìŒ§—Ö“‡s–å‘O’¬“¹‰º4‚Ì2”Ô’n1,i0768j43-1130,,(Œ`‹à)7:30`18:30 (“y)7:30`13:00,‚Q‚©ŒŒã‚©‚ç,37.2877245,136.7446115,
,,nursery,s—§“ìuŒ©•ÛˆçŠ,ÎìŒ§—Ö“‡s—¢’¬32-47,i0768j34-1212,,(Œ`‹à)7:30`18:30 (“y)7:30`13:00,‚Q‚©ŒŒã‚©‚ç,37.4309567,137.0341607,
,,nursery,s—§–P—ˆ•ÛˆçŠ,ÎìŒ§—Ö“‡s–PŠ’¬Î‰Y’¬83-1,i0768j22-2231,,(Œ`‹à)7:30`18:30 (“y)7:30`13:00,‚Q‚©ŒŒã‚©‚ç,37.3985003,136.8969926,
,,nursery,s—§Oˆä•ÛˆçŠ,ÎìŒ§—Ö“‡sOˆä’¬’·‘ò2-11,i0768j26-1201,,(Œ`‹à)7:30`18:30 (“y)7:30`13:00,‚Q‚©ŒŒã‚©‚ç,37.3156458,136.90263,
,,nursery,‰Íˆä•ÛˆçŠ,ÎìŒ§—Ö“‡s‰Íˆä’¬13-120-1,i0768j22-2230,,(Œ`‹à)7:15`18:15 (“y)7:15`18:00,‚Q‚©ŒŒã‚©‚ç,37.3923597,136.9071726,
,,nursery,‚Ü‚¿‚Ì•Ûˆç‰€,ÎìŒ§—Ö“‡s’¬–ì’¬L]4-48,i0768j32-0209,,(Œ`‹à)7:15`18:15 (“y)7:15`12:45,‚Q‚©ŒŒã‚©‚ç,37.4282072,137.087581,
,,nursery,‚í‚¶‚Üƒ~ƒhƒŠ•Ûˆç‰€,ÎìŒ§—Ö“‡s…ç’¬“°’[14”Ô,i0768j23-1300,,(Œ`‹à)7:15`18:15 (“y)7:15`18:00,‚Q‚©ŒŒã‚©‚ç,37.3888549,136.8917505,
,,nursery,_™•Ûˆç‰€,ÎìŒ§–PìŒSŒŠ…’¬š’†‹ƒ20,i0768j56-1344,,(Œ`‹à)7:00`18:00,‚Q‚©ŒŒã‚©‚ç,37.2306015,136.9470794,
,,nursery,¬–Ø•Ûˆç‰€,ÎìŒ§–PìŒS”\“o’¬¬–Ø4-59,i0768j74-1107,,(Œ`‹à)7:00`18:30,‚Q‚©ŒŒã‚©‚ç,37.2984712,137.223568,
,,nursery,¼”g•Ûˆç‰€,ÎìŒ§–PìŒS”\“o’¬¼”g8-2-1,i0768j72-1157,,(Œ`‹à)7:00`18:30,‚Q‚©ŒŒã‚©‚ç,37.3556596,137.2404522,
,,nursery,ŠC‚Ì¯—c’t‰€,ÎìŒ§—Ö“‡s‰Íˆä’¬13•”29‚Ì4,i0768j22-2087,,iŒ`‹àj7:15`18:15@i“yj7:15`12:30,‚Q‚©ŒŒã‚©‚ç,37.3940479,136.9117864,
,,nursery,˜aŒõ—c’t‰€E‚ ‚¢‚±‚¤‰€,ÎìŒ§—Ö“‡s‰Íˆä’¬23-16-1,i0768j22-6002,,iŒ`‹àj7:15`18:45 i“yj7:15`12:30,‚Q‚©ŒŒã‚©‚ç,37.3925678,136.9016703,
,,nursery,•½˜a‚±‚Ç‚à‰€,ÎìŒ§–PìŒSŒŠ…’¬šì“‡ƒ^2,i0768j52-2130,,6:40`19:00,‚Q‚©ŒŒã‚©‚ç,37.2342889,136.9086665,
,,nursery,•½˜a‚±‚Ç‚à‰€‚©‚Ô‚Æ,ÎìŒ§–PìŒSŒŠ…’¬šbƒŒ177-1,i0768j58-1240,,7:30`17:30,‚Q‚©ŒŒã‚©‚ç,37.2057208,137.0258563,
,,nursery,’¬—§‰Lì•ÛˆçŠ,ÎìŒ§–PìŒS”\“o’¬‰Lì20-24,i0768j67-1623,,7:30`18:00,‚U‚©ŒŒã‚©‚ç,37.2545247,137.0837885,
,,nursery,’¬—§ã’¬•ÛˆçŠ,ÎìŒ§–PìŒS”\“o’¬“Vâ‚¢65,i0768j76-0136,,7:30`18:00,‚U‚©ŒŒã‚©‚ç,37.353759,137.1052518,
,,nursery,’¬—§‚µ‚ç‚³‚¬•ÛˆçŠ,ÎìŒ§–PìŒS”\“o’¬‰Fo’Ãƒj-22,i0768j62-0304,,7:30`18:30,‚U‚©ŒŒã‚©‚ç,37.3091235,137.1528825,
,,nursery,’¬—§‚‘q•ÛˆçŠ,ÎìŒ§–PìŒS”\“o’¬•P12-36,i0768j62-0670,,7:30`18:00,‚U‚©ŒŒã‚©‚ç,37.3021731,137.2085332,
,,nursery,’¬—§‚Ğ‚Î‚è•ÛˆçŠ,ÎìŒ§–PìŒS”\“o’¬èR1-73,i0768j62-1502,,7:30`18:30,‚U‚©ŒŒã‚©‚ç,37.3028409,137.1491274,
,,nursery,’¬—§–ö“c•ÛˆçŠ,ÎìŒ§–PìŒS”\“o’¬–ö“cƒ245-1,i0768j76-0154,,7:30`18:30,‚U‚©ŒŒã‚©‚ç,37.3733229,137.0872419,
